CCSDS_OMM_VERS = 2.0
CREATION_DATE  = 
ORIGINATOR     = 

OBJECT_NAME    = RAISE-4
OBJECT_ID      = 2025-297B
CENTER_NAME    = EARTH
REF_FRAME      = TEME
TIME_SYSTEM    = UTC
MEAN_ELEMENT_THEORY = SGP/SGP4

EPOCH          = 2025-12-14T07:01:12.175392
MEAN_MOTION    = 15.07143339
ECCENTRICITY   = .00119175
INCLINATION    = 97.4844
RA_OF_ASC_NODE = 135.8004
ARG_OF_PERICENTER = 315.2297
MEAN_ANOMALY   = 44.7968

EPHEMERIS_TYPE = 0
CLASSIFICATION_TYPE = U
NORAD_CAT_ID   = 67073
ELEMENT_SET_NO = 999
REV_AT_EPOCH   = 2
BSTAR          = .29729511E-3
MEAN_MOTION_DOT = .4414E-4
MEAN_MOTION_DDOT = 0

CCSDS_OMM_VERS = 2.0
CREATION_DATE  = 
ORIGINATOR     = 

OBJECT_NAME    = ELECTRON KICK STAGE R/B
OBJECT_ID      = 2025-297C
CENTER_NAME    = EARTH
REF_FRAME      = TEME
TIME_SYSTEM    = UTC
MEAN_ELEMENT_THEORY = SGP/SGP4

EPOCH          = 2025-12-14T10:01:01.299360
MEAN_MOTION    = 15.53771591
ECCENTRICITY   = .020926
INCLINATION    = 97.4820
RA_OF_ASC_NODE = 135.9507
ARG_OF_PERICENTER = 263.4039
MEAN_ANOMALY   = 94.3357

EPHEMERIS_TYPE = 0
CLASSIFICATION_TYPE = U
NORAD_CAT_ID   = 67074
ELEMENT_SET_NO = 999
REV_AT_EPOCH   = 4
BSTAR          = .12158E-2
MEAN_MOTION_DOT = .209526E-2
MEAN_MOTION_DDOT = .13361E-4

