RAISE-4                 
1 67073U 25297B   25348.29250203  .00004414  00000+0  29730-3 0  9999
2 67073  97.4844 135.8004 0011917 315.2297  44.7968 15.07143339    26
ELECTRON KICK STAGE R/B 
1 67074U 25297C   25348.41737615  .00209526  13361-4  12158-2 0  9996
2 67074  97.4820 135.9507 0209260 263.4039  94.3357 15.53771591    41
